[{"OBJECT_NAME":"STARLINK-36188","OBJECT_ID":"2025-299W","EPOCH":"2026-01-19T06:00:34.165152","MEAN_MOTION":15.40755387,"ECCENTRICITY":0.00016755,"INCLINATION":43,"RA_OF_ASC_NODE":93.5245,"ARG_OF_PERICENTER":281.1053,"MEAN_ANOMALY":78.9615,"EPHEMERIS_TYPE":0,"CLASSIFICATION_TYPE":"U","NORAD_CAT_ID":67122,"ELEMENT_SET_NO":999,"REV_AT_EPOCH":549,"BSTAR":0.001450474,"MEAN_MOTION_DOT":0.00060884,"MEAN_MOTION_DDOT":0},{"OBJECT_NAME":"STARLINK-36151","OBJECT_ID":"2025-299X","EPOCH":"2026-01-19T14:09:54.912960","MEAN_MOTION":15.40729539,"ECCENTRICITY":0.00017959,"INCLINATION":43.0027,"RA_OF_ASC_NODE":91.7802,"ARG_OF_PERICENTER":295.0079,"MEAN_ANOMALY":65.0591,"EPHEMERIS_TYPE":0,"CLASSIFICATION_TYPE":"U","NORAD_CAT_ID":67123,"ELEMENT_SET_NO":999,"REV_AT_EPOCH":554,"BSTAR":0.0013862781,"MEAN_MOTION_DOT":0.00058105,"MEAN_MOTION_DDOT":0},{"OBJECT_NAME":"STARLINK-36195","OBJECT_ID":"2025-299Y","EPOCH":"2026-01-19T06:07:01.342560","MEAN_MOTION":15.40722766,"ECCENTRICITY":0.0001715,"INCLINATION":43.0011,"RA_OF_ASC_NODE":93.5581,"ARG_OF_PERICENTER":276.2699,"MEAN_ANOMALY":83.7962,"EPHEMERIS_TYPE":0,"CLASSIFICATION_TYPE":"U","NORAD_CAT_ID":67124,"ELEMENT_SET_NO":999,"REV_AT_EPOCH":549,"BSTAR":0.0014568681,"MEAN_MOTION_DOT":0.00061089,"MEAN_MOTION_DDOT":0},{"OBJECT_NAME":"STARLINK-36219","OBJECT_ID":"2025-299Z","EPOCH":"2026-01-19T13:34:25.921920","MEAN_MOTION":15.40717194,"ECCENTRICITY":0.00013433,"INCLINATION":43.0021,"RA_OF_ASC_NODE":91.586,"ARG_OF_PERICENTER":268.076,"MEAN_ANOMALY":91.9942,"EPHEMERIS_TYPE":0,"CLASSIFICATION_TYPE":"U","NORAD_CAT_ID":67125,"ELEMENT_SET_NO":999,"REV_AT_EPOCH":554,"BSTAR":0.001366418,"MEAN_MOTION_DOT":0.00057237,"MEAN_MOTION_DDOT":0},{"OBJECT_NAME":"STARLINK-36223","OBJECT_ID":"2025-299AA","EPOCH":"2026-01-19T13:27:58.648608","MEAN_MOTION":15.40719062,"ECCENTRICITY":0.00014943,"INCLINATION":43.0015,"RA_OF_ASC_NODE":91.5513,"ARG_OF_PERICENTER":282.0689,"MEAN_ANOMALY":78,"EPHEMERIS_TYPE":0,"CLASSIFICATION_TYPE":"U","NORAD_CAT_ID":67126,"ELEMENT_SET_NO":999,"REV_AT_EPOCH":554,"BSTAR":0.0013101694,"MEAN_MOTION_DOT":0.00054855,"MEAN_MOTION_DDOT":0},{"OBJECT_NAME":"STARLINK-36164","OBJECT_ID":"2025-299AB","EPOCH":"2026-01-19T14:51:38.893824","MEAN_MOTION":15.40720219,"ECCENTRICITY":0.0002205,"INCLINATION":42.9993,"RA_OF_ASC_NODE":91.1255,"ARG_OF_PERICENTER":252.9991,"MEAN_ANOMALY":107.0624,"EPHEMERIS_TYPE":0,"CLASSIFICATION_TYPE":"U","NORAD_CAT_ID":67127,"ELEMENT_SET_NO":999,"REV_AT_EPOCH":555,"BSTAR":0.00046356552,"MEAN_MOTION_DOT":0.00019123,"MEAN_MOTION_DDOT":0},{"OBJECT_NAME":"STARLINK-35685","OBJECT_ID":"2025-299AC","EPOCH":"2026-01-19T14:03:27.801216","MEAN_MOTION":15.40721873,"ECCENTRICITY":0.00016653,"INCLINATION":43.0018,"RA_OF_ASC_NODE":91.7419,"ARG_OF_PERICENTER":283.6516,"MEAN_ANOMALY":76.4155,"EPHEMERIS_TYPE":0,"CLASSIFICATION_TYPE":"U","NORAD_CAT_ID":67128,"ELEMENT_SET_NO":999,"REV_AT_EPOCH":554,"BSTAR":0.001379791,"MEAN_MOTION_DOT":0.00057814,"MEAN_MOTION_DDOT":0},{"OBJECT_NAME":"STARLINK-36214","OBJECT_ID":"2025-299AD","EPOCH":"2026-01-19T13:11:50.935776","MEAN_MOTION":15.40704636,"ECCENTRICITY":0.00015675,"INCLINATION":43,"RA_OF_ASC_NODE":91.4644,"ARG_OF_PERICENTER":262.5704,"MEAN_ANOMALY":97.4975,"EPHEMERIS_TYPE":0,"CLASSIFICATION_TYPE":"U","NORAD_CAT_ID":67129,"ELEMENT_SET_NO":999,"REV_AT_EPOCH":554,"BSTAR":0.0013264118,"MEAN_MOTION_DOT":0.00055517,"MEAN_MOTION_DDOT":0},{"OBJECT_NAME":"STARLINK-36194","OBJECT_ID":"2025-299AE","EPOCH":"2026-01-19T11:57:51.158592","MEAN_MOTION":15.40709859,"ECCENTRICITY":0.00010553,"INCLINATION":43.0013,"RA_OF_ASC_NODE":91.9427,"ARG_OF_PERICENTER":248.5559,"MEAN_ANOMALY":111.5185,"EPHEMERIS_TYPE":0,"CLASSIFICATION_TYPE":"U","NORAD_CAT_ID":67130,"ELEMENT_SET_NO":999,"REV_AT_EPOCH":553,"BSTAR":0.0014230278,"MEAN_MOTION_DOT":0.00059625,"MEAN_MOTION_DDOT":0},{"OBJECT_NAME":"STARLINK-36182","OBJECT_ID":"2025-304A","EPOCH":"2026-01-19T21:51:41.705568","MEAN_MOTION":15.42739747,"ECCENTRICITY":0.00033068,"INCLINATION":69.9988,"RA_OF_ASC_NODE":301.6272,"ARG_OF_PERICENTER":261.0626,"MEAN_ANOMALY":99.0181,"EPHEMERIS_TYPE":0,"CLASSIFICATION_TYPE":"U","NORAD_CAT_ID":67192,"ELEMENT_SET_NO":999,"REV_AT_EPOCH":644,"BSTAR":-2.1809913e-5,"MEAN_MOTION_DOT":-1.104e-5,"MEAN_MOTION_DDOT":0},{"OBJECT_NAME":"STARLINK-36279","OBJECT_ID":"2025-304B","EPOCH":"2026-01-19T22:38:23.214336","MEAN_MOTION":15.42709903,"ECCENTRICITY":0.00060139,"INCLINATION":69.9972,"RA_OF_ASC_NODE":301.3349,"ARG_OF_PERICENTER":296.2167,"MEAN_ANOMALY":63.8396,"EPHEMERIS_TYPE":0,"CLASSIFICATION_TYPE":"U","NORAD_CAT_ID":67193,"ELEMENT_SET_NO":999,"REV_AT_EPOCH":648,"BSTAR":0.0010673015,"MEAN_MOTION_DOT":0.00046892,"MEAN_MOTION_DDOT":0},{"OBJECT_NAME":"STARLINK-36284","OBJECT_ID":"2025-304C","EPOCH":"2026-01-19T21:28:21.725760","MEAN_MOTION":15.42704786,"ECCENTRICITY":0.00031736,"INCLINATION":70.0045,"RA_OF_ASC_NODE":301.5695,"ARG_OF_PERICENTER":272.3375,"MEAN_ANOMALY":87.7444,"EPHEMERIS_TYPE":0,"CLASSIFICATION_TYPE":"U","NORAD_CAT_ID":67194,"ELEMENT_SET_NO":999,"REV_AT_EPOCH":647,"BSTAR":-0.00034421202,"MEAN_MOTION_DOT":-0.00015189,"MEAN_MOTION_DDOT":0},{"OBJECT_NAME":"STARLINK-36291","OBJECT_ID":"2025-304D","EPOCH":"2026-01-19T22:15:01.545408","MEAN_MOTION":15.42807998,"ECCENTRICITY":0.00030703,"INCLINATION":70.001,"RA_OF_ASC_NODE":301.2771,"ARG_OF_PERICENTER":257.7194,"MEAN_ANOMALY":102.3644,"EPHEMERIS_TYPE":0,"CLASSIFICATION_TYPE":"U","NORAD_CAT_ID":67195,"ELEMENT_SET_NO":999,"REV_AT_EPOCH":648,"BSTAR":0.0018686981,"MEAN_MOTION_DOT":0.00082832,"MEAN_MOTION_DDOT":0},{"OBJECT_NAME":"STARLINK-36239","OBJECT_ID":"2025-304E","EPOCH":"2026-01-19T21:40:01.462080","MEAN_MOTION":15.42758443,"ECCENTRICITY":0.00035058,"INCLINATION":70.0002,"RA_OF_ASC_NODE":301.598,"ARG_OF_PERICENTER":274.0026,"MEAN_ANOMALY":86.0756,"EPHEMERIS_TYPE":0,"CLASSIFICATION_TYPE":"U","NORAD_CAT_ID":67196,"ELEMENT_SET_NO":999,"REV_AT_EPOCH":647,"BSTAR":0.0021142132,"MEAN_MOTION_DOT":0.00093715,"MEAN_MOTION_DDOT":0},{"OBJECT_NAME":"STARLINK-36283","OBJECT_ID":"2025-304F","EPOCH":"2026-01-19T22:26:42.144000","MEAN_MOTION":15.42782228,"ECCENTRICITY":0.00030642,"INCLINATION":69.9993,"RA_OF_ASC_NODE":301.3039,"ARG_OF_PERICENTER":231.7167,"MEAN_ANOMALY":128.374,"EPHEMERIS_TYPE":0,"CLASSIFICATION_TYPE":"U","NORAD_CAT_ID":67197,"ELEMENT_SET_NO":999,"REV_AT_EPOCH":648,"BSTAR":0.001546977,"MEAN_MOTION_DOT":0.00068358,"MEAN_MOTION_DDOT":0},{"OBJECT_NAME":"STARLINK-36267","OBJECT_ID":"2025-304G","EPOCH":"2026-01-19T22:50:02.858208","MEAN_MOTION":15.42782625,"ECCENTRICITY":0.0002858,"INCLINATION":70.0008,"RA_OF_ASC_NODE":301.3634,"ARG_OF_PERICENTER":228.1526,"MEAN_ANOMALY":131.9413,"EPHEMERIS_TYPE":0,"CLASSIFICATION_TYPE":"U","NORAD_CAT_ID":67198,"ELEMENT_SET_NO":999,"REV_AT_EPOCH":645,"BSTAR":0.0019066622,"MEAN_MOTION_DOT":0.00084463,"MEAN_MOTION_DDOT":0},{"OBJECT_NAME":"STARLINK-36268","OBJECT_ID":"2025-304H","EPOCH":"2026-01-19T22:03:21.821184","MEAN_MOTION":15.42727893,"ECCENTRICITY":0.00028954,"INCLINATION":70.0013,"RA_OF_ASC_NODE":301.2474,"ARG_OF_PERICENTER":251.8157,"MEAN_ANOMALY":108.271,"EPHEMERIS_TYPE":0,"CLASSIFICATION_TYPE":"U","NORAD_CAT_ID":67199,"ELEMENT_SET_NO":999,"REV_AT_EPOCH":648,"BSTAR":0.0010394453,"MEAN_MOTION_DOT":0.00045664,"MEAN_MOTION_DDOT":0},{"OBJECT_NAME":"STARLINK-36270","OBJECT_ID":"2025-304J","EPOCH":"2026-01-19T21:45:59.896800","MEAN_MOTION":15.42707702,"ECCENTRICITY":0.00032198,"INCLINATION":70.0001,"RA_OF_ASC_NODE":301.6118,"ARG_OF_PERICENTER":266.2847,"MEAN_ANOMALY":93.7967,"EPHEMERIS_TYPE":0,"CLASSIFICATION_TYPE":"U","NORAD_CAT_ID":67200,"ELEMENT_SET_NO":999,"REV_AT_EPOCH":647,"BSTAR":0.00021276593,"MEAN_MOTION_DOT":9.179e-5,"MEAN_MOTION_DDOT":0},{"OBJECT_NAME":"STARLINK-36262","OBJECT_ID":"2025-304K","EPOCH":"2026-01-19T21:34:19.065792","MEAN_MOTION":15.42758673,"ECCENTRICITY":0.00033106,"INCLINATION":70.0007,"RA_OF_ASC_NODE":301.5832,"ARG_OF_PERICENTER":264.5788,"MEAN_ANOMALY":95.5016,"EPHEMERIS_TYPE":0,"CLASSIFICATION_TYPE":"U","NORAD_CAT_ID":67201,"ELEMENT_SET_NO":999,"REV_AT_EPOCH":647,"BSTAR":0.0018264744,"MEAN_MOTION_DOT":0.00080804,"MEAN_MOTION_DDOT":0},{"OBJECT_NAME":"STARLINK-36263","OBJECT_ID":"2025-304L","EPOCH":"2026-01-19T21:22:38.891424","MEAN_MOTION":15.42748382,"ECCENTRICITY":0.00033853,"INCLINATION":70.0017,"RA_OF_ASC_NODE":301.5536,"ARG_OF_PERICENTER":274.5459,"MEAN_ANOMALY":85.5336,"EPHEMERIS_TYPE":0,"CLASSIFICATION_TYPE":"U","NORAD_CAT_ID":67202,"ELEMENT_SET_NO":999,"REV_AT_EPOCH":647,"BSTAR":0.0011777848,"MEAN_MOTION_DOT":0.0005184,"MEAN_MOTION_DDOT":0},{"OBJECT_NAME":"STARLINK-36224","OBJECT_ID":"2025-304M","EPOCH":"2026-01-19T22:44:20.361696","MEAN_MOTION":15.42777936,"ECCENTRICITY":0.00035646,"INCLINATION":70.0014,"RA_OF_ASC_NODE":301.3497,"ARG_OF_PERICENTER":269.3334,"MEAN_ANOMALY":90.744,"EPHEMERIS_TYPE":0,"CLASSIFICATION_TYPE":"U","NORAD_CAT_ID":67203,"ELEMENT_SET_NO":999,"REV_AT_EPOCH":648,"BSTAR":0.0021930474,"MEAN_MOTION_DOT":0.00097325,"MEAN_MOTION_DDOT":0},{"OBJECT_NAME":"STARLINK-36185","OBJECT_ID":"2025-304N","EPOCH":"2026-01-19T22:32:40.808544","MEAN_MOTION":15.42723063,"ECCENTRICITY":0.00028826,"INCLINATION":69.9998,"RA_OF_ASC_NODE":301.3199,"ARG_OF_PERICENTER":256.1237,"MEAN_ANOMALY":103.9624,"EPHEMERIS_TYPE":0,"CLASSIFICATION_TYPE":"U","NORAD_CAT_ID":67204,"ELEMENT_SET_NO":999,"REV_AT_EPOCH":648,"BSTAR":0.0010281168,"MEAN_MOTION_DOT":0.00045154,"MEAN_MOTION_DDOT":0},{"OBJECT_NAME":"STARLINK-36197","OBJECT_ID":"2025-304P","EPOCH":"2026-01-19T22:21:00.058752","MEAN_MOTION":15.42737097,"ECCENTRICITY":0.00024917,"INCLINATION":70.0004,"RA_OF_ASC_NODE":301.2905,"ARG_OF_PERICENTER":252.4533,"MEAN_ANOMALY":107.6377,"EPHEMERIS_TYPE":0,"CLASSIFICATION_TYPE":"U","NORAD_CAT_ID":67205,"ELEMENT_SET_NO":999,"REV_AT_EPOCH":645,"BSTAR":0.00071119074,"MEAN_MOTION_DOT":0.00031146,"MEAN_MOTION_DDOT":0}]
